[{"OBJECT_NAME":"GHGSAT-C3","OBJECT_ID":"2022-057F","EPOCH":"2026-03-09T22:30:13.234752","MEAN_MOTION":15.32943835,"ECCENTRICITY":0.00073198,"INCLINATION":97.6431,"RA_OF_ASC_NODE":211.0668,"ARG_OF_PERICENTER":112.4588,"MEAN_ANOMALY":247.7429,"EPHEMERIS_TYPE":0,"CLASSIFICATION_TYPE":"U","NORAD_CAT_ID":52737,"ELEMENT_SET_NO":999,"REV_AT_EPOCH":21032,"BSTAR":0.00031249517,"MEAN_MOTION_DOT":9.871e-5,"MEAN_MOTION_DDOT":0},{"OBJECT_NAME":"STARLINK-31262","OBJECT_ID":"2024-017X","EPOCH":"2026-03-09T22:29:42.951552","MEAN_MOTION":15.30208163,"ECCENTRICITY":0.00016067,"INCLINATION":53.1609,"RA_OF_ASC_NODE":292.8303,"ARG_OF_PERICENTER":99.9324,"MEAN_ANOMALY":260.1858,"EPHEMERIS_TYPE":0,"CLASSIFICATION_TYPE":"U","NORAD_CAT_ID":58847,"ELEMENT_SET_NO":999,"REV_AT_EPOCH":11881,"BSTAR":-3.7448257e-5,"MEAN_MOTION_DOT":-1.469e-5,"MEAN_MOTION_DDOT":0}]
